STARLINK-31959          
1 59925U 24106D   26068.41087725 -.00001364  00000+0 -40088-4 0  9998
2 59925  43.0019 330.2606 0000556  12.7050 347.3816 15.27564146100521
FLOCK 4G-36             
1 62675U 25009BU  26068.70726311  .00013573  00000+0  51122-3 0  9993
2 62675  97.4053 151.0513 0003474 324.2456  35.8550 15.27209548 63701
